[Satellite]
VERSION=1.1
NAME=MinXSS-2
NICKNAME=MinXSS-2
TLE1=1 43758U 18099A   19311.13663529  .00000524  00000-0  52519-4 0  9991
TLE2=2 43758  97.7325  21.4274 0015053 210.6124 149.4220 14.95498077 50575
STATUS=0
